     2.100          NAVIGATION                              RINEX VERSION / TYPE
fic2rin                                 02/12/2010 00:08:34 PGM / RUN BY / DATE
                                                            END OF HEADER
24 10  2 11 18  0  0.0  .261548440903D-03  .318323145621D-11  .000000000000D+00
     .380000000000D+02  .123437500000D+02  .520700260684D-08  .196724866234D+01
     .642612576485D-06  .587293040007D-02  .508874654770D-05  .515488238144D+04
     .410400000000D+06  .521540641785D-07  .129878433666D+01  .763684511185D-07
     .949182268589D+00  .275031250000D+03 -.473841919086D+00 -.824212903204D-08
     .600024993449D-10  .100000000000D+01  .157000000000D+04  .000000000000D+00
     .240000000000D+01  .000000000000D+00 -.139698386192D-08  .380000000000D+02
     .403206000000D+06  .400000000000D+01
26 10  2 11 18  0  0.0 -.176117755473D-04 -.363797880709D-11  .000000000000D+00
     .480000000000D+02  .119593750000D+03  .354943356244D-08 -.214803496383D+01
     .601634383202D-05  .192398095969D-01  .888481736183D-05  .515233135033D+04
     .410400000000D+06  .221654772758D-06 -.287823123306D+01 -.670552253723D-07
     .991703509849D+00  .221375000000D+03  .105731333469D+01 -.732673375930D-08
     .258582199558D-09  .100000000000D+01  .157000000000D+04  .000000000000D+00
     .240000000000D+01  .000000000000D+00 -.605359673500D-08  .480000000000D+02
     .403206000000D+06  .400000000000D+01
27 10  2 11 18  0  0.0  .125319696963D-03  .341060513165D-11  .000000000000D+00
     .650000000000D+02  .341250000000D+02  .447447209401D-08  .623123552671D+00
     .161863863468D-05  .217519281432D-01  .259093940258D-05  .515366635704D+04
     .410400000000D+06 -.244006514549D-06 -.194852398533D+01 -.234693288803D-06
     .977129173855D+00  .346156250000D+03 -.146571794794D+01 -.865500337277D-08
    -.307155651409D-10  .100000000000D+01  .157000000000D+04  .000000000000D+00
     .240000000000D+01  .000000000000D+00 -.419095158577D-08  .650000000000D+02
     .403206000000D+06  .400000000000D+01
28 10  2 11 18  0  0.0 -.222674570978D-04  .682121026330D-12  .000000000000D+00
     .600000000000D+02 -.117500000000D+03  .418767443345D-08  .167253458718D+01
    -.624731183052D-05  .158213418908D-01  .716745853424D-05  .515366921997D+04
     .410400000000D+06 -.266358256340D-06 -.812686724807D+00 -.311061739922D-06
     .969225972518D+00  .249000000000D+03 -.197980504914D+01 -.801069082028D-08
    -.173221501085D-09  .100000000000D+01  .157000000000D+04  .000000000000D+00
     .240000000000D+01  .000000000000D+00 -.107102096081D-07  .600000000000D+02
     .403206000000D+06  .400000000000D+01
29 10  2 11 18  0  0.0  .972179695964D-04  .295585778076D-11  .000000000000D+00
     .640000000000D+02 -.185625000000D+02  .430482217027D-08 -.243732691599D+01
    -.946223735809D-06  .291794806253D-02  .105872750282D-04  .515379899788D+04
     .410400000000D+06  .391155481339D-07  .230281713575D+00  .763684511185D-07
     .960817973742D+00  .171593750000D+03 -.131881845993D+01 -.773532220722D-08
     .531093550750D-09  .100000000000D+01  .157000000000D+04  .000000000000D+00
     .240000000000D+01  .000000000000D+00 -.884756445885D-08  .640000000000D+02
     .403206000000D+06  .400000000000D+01
30 10  2 11 18  0  0.0  .218647066504D-03  .341060513165D-11  .000000000000D+00
     .112000000000D+03 -.130656250000D+03  .446947188573D-08  .216365578950D+01
    -.680051743984D-05  .119631200796D-01  .588968396187D-05  .515378680038D+04
     .410400000000D+06  .210478901863D-06 -.889779692930D+00 -.126659870148D-06
     .954879458219D+00  .261062500000D+03  .147429866029D+01 -.802176271004D-08
    -.207508643568D-09  .100000000000D+01  .157000000000D+04  .000000000000D+00
     .240000000000D+01  .000000000000D+00 -.791624188423D-08  .112000000000D+03
     .403206000000D+06  .400000000000D+01
31 10  2 11 18  0  0.0 -.518565066159D-04  .147792889038D-11  .000000000000D+00
     .760000000000D+02  .413750000000D+02  .444482800207D-08 -.178142691928D+01
     .229105353355D-05  .758803647477D-02  .169500708580D-05  .515361813927D+04
     .410400000000D+06 -.108033418655D-06 -.189266000223D+01  .188127160072D-06
     .975562129656D+00  .358750000000D+03 -.110037036385D+01 -.832391815317D-08
     .119647840956D-09  .100000000000D+01  .157000000000D+04  .000000000000D+00
     .240000000000D+01  .000000000000D+00 -.130385160446D-07  .760000000000D+02
     .403206000000D+06  .400000000000D+01
32 10  2 11 18  0  0.0  .972202979028D-04 -.829913915368D-11  .000000000000D+00
     .180000000000D+02 -.138125000000D+02  .459697719684D-08 -.960884401927D+00
    -.707805156708D-06  .128762171371D-01  .957399606705D-05  .515359574699D+04
     .410400000000D+06 -.189989805222D-06  .238113264257D+01 -.912696123123D-07
     .960363127642D+00  .196343750000D+03 -.102247044280D+01 -.816176854185D-08
    -.420731810883D-09  .100000000000D+01  .157000000000D+04  .000000000000D+00
     .240000000000D+01  .000000000000D+00 -.325962901115D-08  .180000000000D+02
     .403206000000D+06  .400000000000D+01
15 10  2 11 17 59 28.0 -.307293608785D-03  .295585778076D-11  .000000000000D+00
     .230000000000D+02  .107437500000D+03  .439982612756D-08  .613071143274D+00
     .547431409359D-05  .238301407080D-02  .891648232937D-05  .515372987747D+04
     .410368000000D+06  .614672899246D-07 -.295702037277D+01 -.745058059692D-08
     .954983852054D+00  .201562500000D+03 -.295963854848D+00 -.800319050787D-08
    -.167864135072D-10  .100000000000D+01  .157000000000D+04  .000000000000D+00
     .240000000000D+01  .000000000000D+00 -.977888703346D-08  .230000000000D+02
     .407376000000D+06  .400000000000D+01
15 10  2 11 19 59 28.0 -.307272188365D-03  .295585778076D-11  .000000000000D+00
     .390000000000D+02  .102156250000D+03  .447768651362D-08  .166348470677D+01
     .550597906113D-05  .238268054090D-02  .893138349056D-05  .515372853279D+04
     .417568000000D+06  .409781932831D-07 -.295707771770D+01  .316649675369D-07
     .954983740872D+00  .201656250000D+03 -.296231058298D+00 -.797390357366D-08
    -.371444043564D-10  .100000000000D+01  .157000000000D+04  .000000000000D+00
     .240000000000D+01  .000000000000D+00 -.977888703346D-08  .390000000000D+02
     .410406000000D+06  .400000000000D+01
 1 10  2 11 20  0  0.0 -.875364057720D-04 -.375166564481D-11  .000000000000D+00
     .540000000000D+02 -.123187500000D+03  .551558688919D-08 -.274225721226D+01
    -.629760324955D-05  .432016572449D-02  .680238008499D-05  .515480784798D+04
     .417600000000D+06  .186264514923D-08 -.851683164434D+00  .745058059692D-08
     .963596602306D+00  .249250000000D+03  .889021493211D+00 -.796104589523D-08
    -.212866009581D-09  .100000000000D+01  .157000000000D+04  .000000000000D+00
     .240000000000D+01  .630000000000D+02 -.190921127796D-07  .540000000000D+02
     .410406000000D+06  .400000000000D+01
 2 10  2 11 20  0  0.0  .225620809942D-03  .409272615798D-11  .000000000000D+00
     .650000000000D+02  .164687500000D+02  .550451499943D-08  .987610924839D+00
     .834465026855D-06  .934707687702D-02  .462122261524D-05  .515376713562D+04
     .417600000000D+06  .117346644402D-06  .123264175801D+01  .931322574615D-07
     .939910365485D+00  .278187500000D+03  .295987564800D+01 -.850249702027D-08
     .110718897601D-09  .100000000000D+01  .157000000000D+04  .000000000000D+00
     .240000000000D+01  .000000000000D+00 -.172294676304D-07  .650000000000D+02
     .410406000000D+06  .400000000000D+01
 3 10  2 11 20  0  0.0  .514479354024D-03  .511590769747D-11  .000000000000D+00
     .610000000000D+02 -.370625000000D+02  .510664128354D-08  .822106703015D+00
    -.187568366528D-05  .128177040024D-01  .109467655420D-04  .515369756889D+04
     .417600000000D+06 -.111758708954D-06  .818372860629D-01  .987201929092D-07
     .927412700222D+00  .153187500000D+03  .980157736121D+00 -.838534928346D-08
     .281440294547D-09  .100000000000D+01  .157000000000D+04  .000000000000D+00
     .240000000000D+01  .000000000000D+00 -.419095158577D-08  .610000000000D+02
     .410406000000D+06  .400000000000D+01
 4 10  2 11 20  0  0.0  .126464292407D-04  .909494701773D-11  .000000000000D+00
     .390000000000D+02  .153437500000D+02  .548022827350D-08 -.232259228449D+01
     .549480319023D-06  .912855053321D-02  .483542680740D-05  .515362479591D+04
     .417600000000D+06  .130385160446D-06  .125065812812D+01 -.163912773132D-06
     .939056275875D+00  .274031250000D+03  .595247977828D+00 -.843142263117D-08
     .280368821344D-09  .100000000000D+01  .157000000000D+04  .000000000000D+00
     .240000000000D+01  .000000000000D+00 -.605359673500D-08  .390000000000D+02
     .410406000000D+06  .400000000000D+01
 5 10  2 11 20  0  0.0 -.897236168385D-05  .261479726760D-11  .000000000000D+00
     .550000000000D+02 -.161562500000D+02  .466055127352D-08  .242241448354D+01
    -.825151801109D-06  .189924438018D-02  .883452594280D-05  .515364852333D+04
     .417600000000D+06 -.279396772385D-07  .229209131736D+01  .223517417908D-07
     .959464492176D+00  .210343750000D+03  .331966646212D+00 -.792533012181D-08
    -.526450500205D-09  .100000000000D+01  .157000000000D+04  .000000000000D+00
     .240000000000D+01  .000000000000D+00 -.884756445885D-08  .550000000000D+02
     .410406000000D+06  .400000000000D+01
 6 10  2 11 20  0  0.0  .250773038715D-03 -.500222085975D-11  .000000000000D+00
     .700000000000D+01 -.318750000000D+02  .483770150969D-08  .308813291345D+01
    -.167824327946D-05  .598271179479D-02  .107586383820D-04  .515367331505D+04
     .417600000000D+06  .124797224998D-06  .151549759330D+00  .122934579849D-06
     .934781199149D+00  .154156250000D+03 -.114902996694D+01 -.799926177279D-08
     .462519265784D-09  .100000000000D+01  .157000000000D+04  .000000000000D+00
     .240000000000D+01  .000000000000D+00 -.465661287308D-08  .700000000000D+01
     .410406000000D+06  .400000000000D+01
